STARLINK-3112
1 19421C 21104P   21326.14776096 -.00865122  00000-0 -32323-2 0  3267
2 19421  53.2176  90.8294 0024724  64.7329 234.8713 15.87555667    12
